{"type": "FeatureCollection", "features": [ {"type": "Feature", "properties": {"norad_id": 32289, "name": "YAOGAN-3", "group": "resource", "lat": -79.64912403429906, "lon": 70.34678726581117, "alt_km": 606.3425997072427, "timestamp": "2025-12-20T20:38:44.100713+00:00", "meta": {"OBJECT_NAME": "YAOGAN-3", "OBJECT_ID": "2007-055A", "EPOCH": "2025-12-20T14:34:16.715424", "MEAN_MOTION": 14.89891174, "ECCENTRICITY": 0.0001141, "INCLINATION": 97.8356, "RA_OF_ASC_NODE": 21.1614, "ARG_OF_PERICENTER": 72.1856, "MEAN_ANOMALY": 287.9486, "EPHEMERIS_TYPE": 0, "CLASSIFICATION_TYPE": "U", "NORAD_CAT_ID": 32289, "ELEMENT_SET_NO": 999, "REV_AT_EPOCH": 97926, "BSTAR": 0.00013543109, "MEAN_MOTION_DOT": 1.247e-05, "MEAN_MOTION_DDOT": 0}, "tle": {"line1": "1 32289U 07055A   25354.60713791  .00001247  00000+0  13543-3 0  9996", "line2": "2 32289  97.8356  21.1614 0001141  72.1856 287.9486 14.89891174979264"}}, "geometry": {"type": "Point", "coordinates": [70.34678726581117, -79.64912403429906]}}, {"type": "Feature", "properties": {"norad_id": 32376, "name": "COSMO-SKYMED 2", "group": "resource", "lat": -29.446443250463727, "lon": -179.45367545827295, "alt_km": 628.8381112688648, "timestamp": "2025-12-20T20:38:44.100724+00:00", "meta": {"OBJECT_NAME": "COSMO-SKYMED 2", "OBJECT_ID": "2007-059A", "EPOCH": "2025-12-20T14:17:54.707712", "MEAN_MOTION": 14.82151387, "ECCENTRICITY": 0.00013487, "INCLINATION": 97.8804, "RA_OF_ASC_NODE": 175.8013, "ARG_OF_PERICENTER": 83.1432, "MEAN_ANOMALY": 276.9934, "EPHEMERIS_TYPE": 0, "CLASSIFICATION_TYPE": "U", "NORAD_CAT_ID": 32376, "ELEMENT_SET_NO": 999, "REV_AT_EPOCH": 97554, "BSTAR": 5.0483296e-05, "MEAN_MOTION_DOT": 3.5e-06, "MEAN_MOTION_DDOT": 0}, "tle": {"line1": "1 32376U 07059A   25354.59577208  .00000350  00000+0  50483-4 0  9995", "line2": "2 32376  97.8804 175.8013 0001348  83.1432 276.9934 14.82151387975541"}}, "geometry": {"type": "Point", "coordinates": [-179.45367545827295, -29.446443250463727]}}, {"type": "Feature", "properties": {"norad_id": 32382, "name": "RADARSAT-2", "group": "resource", "lat": -16.686128857512, "lon": 176.73893299861643, "alt_km": 796.9419041150923, "timestamp": "2025-12-20T20:38:44.100734+00:00", "meta": {"OBJECT_NAME": "RADARSAT-2", "OBJECT_ID": "2007-061A", "EPOCH": "2025-12-20T13:00:40.338720", "MEAN_MOTION": 14.29984385, "ECCENTRICITY": 0.00011287, "INCLINATION": 98.579, "RA_OF_ASC_NODE": 359.019, "ARG_OF_PERICENTER": 83.5095, "MEAN_ANOMALY": 276.6216, "EPHEMERIS_TYPE": 0, "CLASSIFICATION_TYPE": "U", "NORAD_CAT_ID": 32382, "ELEMENT_SET_NO": 999, "REV_AT_EPOCH": 94042, "BSTAR": 7.8207132e-05, "MEAN_MOTION_DOT": 1.58e-06, "MEAN_MOTION_DDOT": 0}, "tle": {"line1": "1 32382U 07061A   25354.54213355  .00000158  00000+0  78207-4 0  9990", "line2": "2 32382  98.5790 359.0190 0001128  83.5095 276.6216 14.29984385940429"}}, "geometry": {"type": "Point", "coordinates": [176.73893299861643, -16.686128857512]}}, {"type": "Feature", "properties": {"norad_id": 32783, "name": "CARTOSAT-2A", "group": "resource", "lat": 16.178476620830647, "lon": 42.15362169486978, "alt_km": 627.1160918194582, "timestamp": "2025-12-20T20:38:44.100745+00:00", "meta": {"OBJECT_NAME": "CARTOSAT-2A", "OBJECT_ID": "2008-021A", "EPOCH": "2025-12-20T14:04:37.411104", "MEAN_MOTION": 14.78952527, "ECCENTRICITY": 0.00112471, "INCLINATION": 97.7924, "RA_OF_ASC_NODE": 44.1654, "ARG_OF_PERICENTER": 339.2332, "MEAN_ANOMALY": 20.8421, "EPHEMERIS_TYPE": 0, "CLASSIFICATION_TYPE": "U", "NORAD_CAT_ID": 32783, "ELEMENT_SET_NO": 999, "REV_AT_EPOCH": 95240, "BSTAR": 0.00017271779, "MEAN_MOTION_DOT": 1.225e-05, "MEAN_MOTION_DDOT": 0}, "tle": {"line1": "1 32783U 08021A   25354.58654411  .00001225  00000+0  17272-3 0  9998", "line2": "2 32783  97.7924  44.1654 0011247 339.2332  20.8421 14.78952527952404"}}, "geometry": {"type": "Point", "coordinates": [42.15362169486978, 16.178476620830647]}}, {"type": "Feature", "properties": {"norad_id": 33320, "name": "HUANJING 1A (HJ-1A)", "group": "resource", "lat": 11.712122069559676, "lon": -18.77798295841085, "alt_km": 606.2547207058769, "timestamp": "2025-12-20T20:38:44.100755+00:00", "meta": {"OBJECT_NAME": "HUANJING 1A (HJ-1A)", "OBJECT_ID": "2008-041A", "EPOCH": "2025-12-20T14:07:01.750944", "MEAN_MOTION": 14.83416319, "ECCENTRICITY": 0.00195958, "INCLINATION": 97.6535, "RA_OF_ASC_NODE": 342.5588, "ARG_OF_PERICENTER": 9.4964, "MEAN_ANOMALY": 350.6617, "EPHEMERIS_TYPE": 0, "CLASSIFICATION_TYPE": "U", "NORAD_CAT_ID": 33320, "ELEMENT_SET_NO": 999, "REV_AT_EPOCH": 93192, "BSTAR": 0.00013595282, "MEAN_MOTION_DOT": 1.068e-05, "MEAN_MOTION_DDOT": 0}, "tle": {"line1": "1 33320U 08041A   25354.58821471  .00001068  00000+0  13595-3 0  9999", "line2": "2 33320  97.6535 342.5588 0019595   9.4964 350.6617 14.83416319931926"}}, "geometry": {"type": "Point", "coordinates": [-18.77798295841085, 11.712122069559676]}}, {"type": "Feature", "properties": {"norad_id": 33321, "name": "HUANJING 1B (HJ-1B)", "group": "resource", "lat": -36.05822827063347, "lon": 160.88709435467956, "alt_km": 652.5631499749888, "timestamp": "2025-12-20T20:38:44.100766+00:00", "meta": {"OBJECT_NAME": "HUANJING 1B (HJ-1B)", "OBJECT_ID": "2008-041B", "EPOCH": "2025-12-20T14:48:59.033952", "MEAN_MOTION": 14.82841667, "ECCENTRICITY": 0.00380245, "INCLINATION": 97.6395, "RA_OF_ASC_NODE": 346.2632, "ARG_OF_PERICENTER": 50.889, "MEAN_ANOMALY": 309.5695, "EPHEMERIS_TYPE": 0, "CLASSIFICATION_TYPE": "U", "NORAD_CAT_ID": 33321, "ELEMENT_SET_NO": 999, "REV_AT_EPOCH": 93194, "BSTAR": 0.00016386076, "MEAN_MOTION_DOT": 1.291e-05, "MEAN_MOTION_DDOT": 0}, "tle": {"line1": "1 33321U 08041B   25354.61734993  .00001291  00000+0  16386-3 0  9995", "line2": "2 33321  97.6395 346.2632 0038024  50.8890 309.5695 14.82841667931946"}}, "geometry": {"type": "Point", "coordinates": [160.88709435467956, -36.05822827063347]}}, {"type": "Feature", "properties": {"norad_id": 33331, "name": "GEOEYE 1", "group": "resource", "lat": 34.04070159356475, "lon": 60.500690347903586, "alt_km": 677.4602957893176, "timestamp": "2025-12-20T20:38:44.100777+00:00", "meta": {"OBJECT_NAME": "GEOEYE 1", "OBJECT_ID": "2008-042A", "EPOCH": "2025-12-20T12:17:28.273056", "MEAN_MOTION": 14.64709875, "ECCENTRICITY": 0.00028208, "INCLINATION": 98.1244, "RA_OF_ASC_NODE": 65.6948, "ARG_OF_PERICENTER": 250.9086, "MEAN_ANOMALY": 109.1812, "EPHEMERIS_TYPE": 0, "CLASSIFICATION_TYPE": "U", "NORAD_CAT_ID": 33331, "ELEMENT_SET_NO": 999, "REV_AT_EPOCH": 92399, "BSTAR": 8.4714848e-05, "MEAN_MOTION_DOT": 4.03e-06, "MEAN_MOTION_DDOT": 0}, "tle": {"line1": "1 33331U 08042A   25354.51213279  .00000403  00000+0  84715-4 0  9991", "line2": "2 33331  98.1244  65.6948 0002820 250.9086 109.1812 14.64709875923998"}}, "geometry": {"type": "Point", "coordinates": [60.500690347903586, 34.04070159356475]}}, {"type": "Feature", "properties": {"norad_id": 33396, "name": "THEOS", "group": "resource", "lat": 27.93814959418813, "lon": 48.114845687530924, "alt_km": 823.4039108535198, "timestamp": "2025-12-20T20:38:44.100787+00:00", "meta": {"OBJECT_NAME": "THEOS", "OBJECT_ID": "2008-049A", "EPOCH": "2025-12-20T15:26:23.603136", "MEAN_MOTION": 14.2009938, "ECCENTRICITY": 0.00011849, "INCLINATION": 98.5862, "RA_OF_ASC_NODE": 52.5001, "ARG_OF_PERICENTER": 94.3634, "MEAN_ANOMALY": 265.7678, "EPHEMERIS_TYPE": 0, "CLASSIFICATION_TYPE": "U", "NORAD_CAT_ID": 33396, "ELEMENT_SET_NO": 999, "REV_AT_EPOCH": 89262, "BSTAR": 0.00022079058, "MEAN_MOTION_DOT": 4.28e-06, "MEAN_MOTION_DDOT": 0}, "tle": {"line1": "1 33396U 08049A   25354.64332874  .00000428  00000+0  22079-3 0  9997", "line2": "2 33396  98.5862  52.5001 0001184  94.3634 265.7678 14.20099380892624"}}, "geometry": {"type": "Point", "coordinates": [48.114845687530924, 27.93814959418813]}}, {"type": "Feature", "properties": {"norad_id": 33412, "name": "COSMO-SKYMED 3", "group": "resource", "lat": 80.7855470256033, "lon": 147.16608802713677, "alt_km": 536.8554483665457, "timestamp": "2025-12-20T20:38:44.100797+00:00", "meta": {"OBJECT_NAME": "COSMO-SKYMED 3", "OBJECT_ID": "2008-054A", "EPOCH": "2025-12-20T13:53:15.063648", "MEAN_MOTION": 15.05420019, "ECCENTRICITY": 0.00169549, "INCLINATION": 97.8466, "RA_OF_ASC_NODE": 205.1026, "ARG_OF_PERICENTER": 145.8376, "MEAN_ANOMALY": 214.3945, "EPHEMERIS_TYPE": 0, "CLASSIFICATION_TYPE": "U", "NORAD_CAT_ID": 33412, "ELEMENT_SET_NO": 999, "REV_AT_EPOCH": 93005, "BSTAR": 6.7662315e-05, "MEAN_MOTION_DOT": 9.08e-06, "MEAN_MOTION_DDOT": 0}, "tle": {"line1": "1 33412U 08054A   25354.57864657  .00000908  00000+0  67662-4 0  9994", "line2": "2 33412  97.8466 205.1026 0016954 145.8376 214.3945 15.05420019930052"}}, "geometry": {"type": "Point", "coordinates": [147.16608802713677, 80.7855470256033]}}, {"type": "Feature", "properties": {"norad_id": 33446, "name": "YAOGAN-4", "group": "resource", "lat": 55.13333215662571, "lon": 116.40420460527957, "alt_km": 624.6406750222031, "timestamp": "2025-12-20T20:38:44.100808+00:00", "meta": {"OBJECT_NAME": "YAOGAN-4", "OBJECT_ID": "2008-061A", "EPOCH": "2025-12-20T07:07:49.061568", "MEAN_MOTION": 14.82702731, "ECCENTRICITY": 0.00131175, "INCLINATION": 97.9192, "RA_OF_ASC_NODE": 284.3224, "ARG_OF_PERICENTER": 296.7402, "MEAN_ANOMALY": 63.2469, "EPHEMERIS_TYPE": 0, "CLASSIFICATION_TYPE": "U", "NORAD_CAT_ID": 33446, "ELEMENT_SET_NO": 999, "REV_AT_EPOCH": 91915, "BSTAR": 0.000123707, "MEAN_MOTION_DOT": 9.46e-06, "MEAN_MOTION_DDOT": 0}, "tle": {"line1": "1 33446U 08061A   25354.29709562  .00000946  00000+0  12371-3 0  9999", "line2": "2 33446  97.9192 284.3224 0013117 296.7402  63.2469 14.82702731919157"}}, "geometry": {"type": "Point", "coordinates": [116.40420460527957, 55.13333215662571]}}]}